NORAD_CAT_ID,OBJECT_NAME,OBJECT_TYPE,EPOCH,MEAN_MOTION,ECCENTRICITY,INCLINATION,RA_OF_ASC_NODE,ARG_OF_PERICENTER,MEAN_ANOMALY,BSTAR,MEAN_MOTION_DOT,MEAN_MOTION_DDOT,TLE_LINE0,TLE_LINE1,TLE_LINE2,SEMIMAJOR_AXIS,PERIOD,APOGEE,PERIGEE,DECAYED
53003.0,STARLINK-4255,PAYLOAD,2024-01-12 06:25:45,15.08844185,0.0001798,53.2185,28.9931,116.5388,243.5789,-3.9038e-05,-9.09e-06,0.0,0 STARLINK-4255,1 53003U 22076T   24012.26789010 -.00000909  00000-0 -39038-4 0  9997,2 53003  53.2185  28.9931 0001798 116.5388 243.5789 15.08844185 84448,6917.868,95.437,540.976,538.489,0.0
53003.0,STARLINK-4255,PAYLOAD,2024-01-12 23:55:01,15.08829991,0.000134,53.217,25.7257,97.8199,262.2945,2.496e-05,1.09e-06,0.0,0 STARLINK-4255,1 53003U 22076T   24012.99653997  .00000109  00000-0  24960-4 0  9999,2 53003  53.2170  25.7257 0001340  97.8199 262.2945 15.08829991 84554,6917.911,95.438,540.703,538.849,0.0
53003.0,STARLINK-4255,PAYLOAD,2024-01-13 09:27:19,15.08832095,0.0001291,53.2173,23.9403,90.006,270.108,3.48e-05,2.66e-06,0.0,0 STARLINK-4255,1 53003U 22076T   24013.39398104  .00000266  00000-0  34800-4 0  9998,2 53003  53.2173  23.9403 0001291  90.0060 270.1080 15.08832095 84149,6917.905,95.438,540.663,538.876,0.0
53003.0,STARLINK-4255,PAYLOAD,2024-01-14 04:31:58,15.08797212,0.0001561,53.2172,20.3674,91.45,268.6671,0.00054848,8.442e-05,0.0,0 STARLINK-4255,1 53003U 22076T   24014.18886959  .00008442  00000-0  54848-3 0  9993,2 53003  53.2172  20.3674 0001561  91.4500 268.6671 15.08797212 84737,6918.011,95.44,540.956,538.796,0.0
53003.0,STARLINK-4255,PAYLOAD,2024-01-14 09:18:06,15.08843985,0.0001757,53.219,19.4722,112.4528,247.665,7.7573e-05,9.47e-06,0.0,0 STARLINK-4255,1 53003U 22076T   24014.38757526  .00000947  00000-0  77573-4 0  9995,2 53003  53.2190  19.4722 0001757 112.4528 247.6650 15.08843985 84767,6917.868,95.437,540.949,538.518,0.0
53003.0,STARLINK-4255,PAYLOAD,2024-01-14 23:36:35,15.08835369,0.0001488,53.2172,16.7966,99.2134,260.9027,0.00010457,1.376e-05,0.0,0 STARLINK-4255,1 53003U 22076T   24014.98374210  .00001376  00000-0  10457-3 0  9990,2 53003  53.2172  16.7966 0001488  99.2134 260.9027 15.08835369 84856,6917.895,95.438,540.789,538.73,0.0
53003.0,STARLINK-4255,PAYLOAD,2024-01-15 09:08:52,15.08851069,0.0001458,53.2173,15.0094,96.9365,263.1794,0.00022494,3.295e-05,0.0,0 STARLINK-4255,1 53003U 22076T   24015.38116865  .00003295  00000-0  22494-3 0  9991,2 53003  53.2173  15.0094 0001458  96.9365 263.1794 15.08851069 84916,6917.847,95.437,540.72,538.703,0.0
53003.0,STARLINK-4255,PAYLOAD,2024-01-15 23:27:23,15.08832267,0.0001742,53.2202,12.339,125.2113,234.9042,-5.0421e-05,-1.09e-05,0.0,0 STARLINK-4255,1 53003U 22076T   24015.97734991 -.00001090  00000-0 -50421-4 0  9997,2 53003  53.2202  12.3390 0001742 125.2113 234.9042 15.08832267 85003,6917.904,95.438,540.974,538.564,0.0
53003.0,STARLINK-4255,PAYLOAD,2024-01-16 08:59:41,15.08840061,0.0001852,53.2169,10.557,85.0343,275.0861,-4.4813e-05,-1.001e-05,0.0,0 STARLINK-4255,1 53003U 22076T   24016.37478807 -.00001001  00000-0 -44813-4 0  9993,2 53003  53.2169  10.5570 0001852  85.0343 275.0861 15.08840061 85067,6917.88,95.438,541.026,538.464,0.0
53003.0,STARLINK-4255,PAYLOAD,2024-01-17 04:04:18,15.08849135,0.000155,53.2178,6.9848,78.4211,281.6955,2.9154e-05,1.76e-06,0.0,0 STARLINK-4255,1 53003U 22076T   24017.16966046  .00000176  00000-0  29154-4 0  9999,2 53003  53.2178   6.9848 0001550  78.4211 281.6955 15.08849135 85180,6917.852,95.437,540.79,538.645,0.0
53003.0,STARLINK-4255,PAYLOAD,2024-01-17 05:39:41,15.08849693,0.0001399,53.2187,6.6901,110.3481,249.7661,8.5737e-05,1.077e-05,0.0,0 STARLINK-4255,1 53003U 22076T   24017.23589766  .00001077  00000-0  85737-4 0  9997,2 53003  53.2187   6.6901 0001399 110.3481 249.7661 15.08849693 84720,6917.851,95.437,540.684,538.748,0.0
53003.0,STARLINK-4255,PAYLOAD,2024-01-18 03:55:05,15.08844927,0.0001435,53.2169,2.5239,104.4892,255.6259,0.0001072,1.419e-05,0.0,0 STARLINK-4255,1 53003U 22076T   24018.16326079  .00001419  00000-0  10720-3 0  9995,2 53003  53.2169   2.5239 0001435 104.4892 255.6259 15.08844927 85332,6917.865,95.437,540.723,538.738,0.0
53003.0,STARLINK-4255,PAYLOAD,2024-01-18 05:30:29,15.08843873,0.0001494,53.2181,2.2271,87.6025,272.5138,0.00010502,1.384e-05,0.0,0 STARLINK-4255,1 53003U 22076T   24018.22950258  .00001384  00000-0  10502-3 0  9993,2 53003  53.2181   2.2271 0001494  87.6025 272.5138 15.08843873 84875,6917.869,95.437,540.767,538.7,0.0
53003.0,STARLINK-4255,PAYLOAD,2024-01-19 03:45:53,15.08837842,0.0001635,53.2196,358.0689,109.0086,251.1083,3.1848e-05,2.19e-06,0.0,0 STARLINK-4255,1 53003U 22076T   24019.15686740  .00000219  00000-0  31848-4 0  9991,2 53003  53.2196 358.0689 0001635 109.0086 251.1083 15.08837842 85488,6917.887,95.438,540.883,538.621,0.0
53003.0,STARLINK-4255,PAYLOAD,2024-01-19 08:32:02,15.088417,0.0001572,53.2186,357.1712,101.3721,258.7448,4.6893e-05,4.58e-06,0.0,0 STARLINK-4255,1 53003U 22076T   24019.35558454  .00000458  00000-0  46893-4 0  9994,2 53003  53.2186 357.1712 0001572 101.3721 258.7448 15.08841700 85043,6917.875,95.437,540.828,538.653,0.0
53003.0,STARLINK-4255,PAYLOAD,2024-01-19 22:50:30,15.08841066,0.0001734,53.2189,354.4945,109.0882,251.0298,2.5896e-05,1.24e-06,0.0,0 STARLINK-4255,1 53003U 22076T   24019.95174480  .00000124  00000-0  25896-4 0  9993,2 53003  53.2189 354.4945 0001734 109.0882 251.0298 15.08841066 85131,6917.877,95.437,540.942,538.543,0.0
53003.0,STARLINK-4255,PAYLOAD,2024-01-20 03:36:39,15.08847145,0.0001787,53.2188,353.6022,118.176,241.9413,3.5406e-05,2.76e-06,0.0,0 STARLINK-4255,1 53003U 22076T   24020.15046021  .00000276  00000-0  35406-4 0  9992,2 53003  53.2188 353.6022 0001787 118.1760 241.9413 15.08847145 85637,6917.859,95.437,540.96,538.487,0.0
53003.0,STARLINK-4255,PAYLOAD,2024-01-20 22:41:18,15.08835772,0.0001314,53.2182,350.0376,92.9156,267.1987,3.7228e-05,3.05e-06,0.0,0 STARLINK-4255,1 53003U 22076T   24020.94534940  .00000305  00000-0  37228-4 0  9998,2 53003  53.2182 350.0376 0001314  92.9156 267.1987 15.08835772 85288,6917.893,95.438,540.667,538.849,0.0
53003.0,STARLINK-4255,PAYLOAD,2024-01-21 03:27:27,15.08834884,0.0001445,53.2185,349.1455,94.7283,265.3874,2.4543e-05,1.03e-06,0.0,0 STARLINK-4255,1 53003U 22076T   24021.14407075  .00000103  00000-0  24543-4 0  9991,2 53003  53.2185 349.1455 0001445  94.7283 265.3874 15.08834884 85787,6917.896,95.438,540.761,538.761,0.0
53003.0,STARLINK-4255,PAYLOAD,2024-01-21 06:38:13,15.08839046,0.0001475,53.2184,348.55,87.0986,273.0174,4.8392e-05,4.82e-06,0.0,0 STARLINK-4255,1 53003U 22076T   24021.27654688  .00000482  00000-0  48392-4 0  9997,2 53003  53.2184 348.5500 0001475  87.0986 273.0174 15.08839046 85333,6917.883,95.438,540.769,538.728,0.0
53003.0,STARLINK-4255,PAYLOAD,2024-01-22 06:29:00,15.08843561,0.0001584,53.2192,344.0896,91.3555,268.7619,-1.9197e-05,-5.94e-06,0.0,0 STARLINK-4255,1 53003U 22076T   24022.27014996 -.00000594  00000-0 -19197-4 0  9997,2 53003  53.2192 344.0896 0001584  91.3555 268.7619 15.08843561 85952,6917.87,95.437,540.83,538.639,0.0
53003.0,STARLINK-4255,PAYLOAD,2024-01-23 04:44:23,15.08852315,0.0001689,53.2194,339.9275,81.6108,278.5076,0.00019101,2.754e-05,0.0,0 STARLINK-4255,1 53003U 22076T   24023.19749800  .00002754  00000-0  19101-3 0  9990,2 53003  53.2194 339.9275 0001689  81.6108 278.5076 15.08852315 86099,6917.843,95.437,540.876,538.539,0.0
53003.0,STARLINK-4255,PAYLOAD,2024-01-24 02:59:50,15.08835864,0.000163,53.2188,335.7665,99.479,260.6386,1.6886e-05,-1.9e-07,0.0,0 STARLINK-4255,1 53003U 22076T   24024.12488428 -.00000019  00000-0  16886-4 0  9991,2 53003  53.2188 335.7665 0001630  99.4790 260.6386 15.08835864 86231,6917.893,95.438,540.886,538.63,0.0
53003.0,STARLINK-4255,PAYLOAD,2024-01-25 02:50:35,15.08862519,0.0001644,53.2196,331.3173,94.5951,265.5229,6.8991e-05,8.11e-06,0.0,0 STARLINK-4255,1 53003U 22076T   24025.11846544  .00000811  00000-0  68991-4 0  9991,2 53003  53.2196 331.3173 0001644  94.5951 265.5229 15.08862519 86389,6917.812,95.436,540.814,538.539,0.0
53003.0,STARLINK-4255,PAYLOAD,2024-01-26 02:41:23,15.08850509,0.0001409,53.2197,326.8438,84.1875,275.9278,7.46e-05,9e-06,0.0,0 STARLINK-4255,1 53003U 22076T   24026.11207563  .00000900  00000-0  74600-4 0  9997,2 53003  53.2197 326.8438 0001409  84.1875 275.9278 15.08850509 86534,6917.848,95.437,540.688,538.739,0.0
53003.0,STARLINK-4255,PAYLOAD,2024-01-27 00:56:47,15.08853415,0.0001395,53.2192,322.6806,93.7356,266.3796,-0.00010213,-1.914e-05,0.0,0 STARLINK-4255,1 53003U 22076T   24027.03943426 -.00001914  00000-0 -10213-3 0  9991,2 53003  53.2192 322.6806 0001395  93.7356 266.3796 15.08853415 86679,6917.839,95.437,540.669,538.739,0.0
53003.0,STARLINK-4255,PAYLOAD,2024-01-27 20:01:25,15.08837391,0.0001449,53.219,319.1121,93.8847,266.2311,4.547e-05,4.36e-06,0.0,0 STARLINK-4255,1 53003U 22076T   24027.83431986  .00000436  00000-0  45470-4 0  9992,2 53003  53.2190 319.1121 0001449  93.8847 266.2311 15.08837391 86794,6917.888,95.438,540.756,538.751,0.0
53003.0,STARLINK-4255,PAYLOAD,2024-01-28 05:33:43,15.08840732,0.0001425,53.2184,317.3255,96.5379,263.5775,6.0674e-05,6.78e-06,0.0,0 STARLINK-4255,1 53003U 22076T   24028.23175648  .00000678  00000-0  60674-4 0  9998,2 53003  53.2184 317.3255 0001425  96.5379 263.5775 15.08840732 86381,6917.878,95.438,540.729,538.757,0.0
53003.0,STARLINK-4255,PAYLOAD,2024-01-29 03:49:07,15.08842346,0.0001511,53.2183,313.1604,103.4605,256.6556,7.4395e-05,8.96e-06,0.0,0 STARLINK-4255,1 53003U 22076T   24029.15911521  .00000896  00000-0  74395-4 0  9995,2 53003  53.2183 313.1604 0001511 103.4605 256.6556 15.08842346 86998,6917.873,95.437,540.784,538.693,0.0
53003.0,STARLINK-4255,PAYLOAD,2024-01-29 18:07:36,15.08841717,0.0001566,53.2189,310.4899,103.9426,256.1741,5.9641e-05,6.61e-06,0.0,0 STARLINK-4255,1 53003U 22076T   24029.75527807  .00000661  00000-0  59641-4 0  9998,2 53003  53.2189 310.4899 0001566 103.9426 256.1741 15.08841717 86617,6917.875,95.437,540.823,538.657,0.0
